{
  "type": "FeatureCollection",
  "features": [
    {
      "type": "Feature",
      "properties": {
        "norad_id": 66588,
        "name": "STARLINK-36076",
        "group": "last-30-days",
        "lat": -22.108533758631253,
        "lon": 90.86584539292937,
        "alt_km": 344.2994740439626,
        "timestamp": "2025-12-03T22:42:31.476781+00:00",
        "meta_object_name": "STARLINK-36076",
        "meta_object_id": "2025-270A",
        "meta_epoch": "2025-12-03T08:00:01.999008",
        "meta_mean_motion": 15.77707206,
        "meta_eccentricity": 0.0001805,
        "meta_inclination": 42.9989,
        "meta_ra_of_asc_node": 248.7468,
        "meta_arg_of_pericenter": 267.662,
        "meta_mean_anomaly": 63.0938,
        "meta_ephemeris_type": 0,
        "meta_classification_type": "U",
        "meta_norad_cat_id": 66588,
        "meta_element_set_no": 999,
        "meta_rev_at_epoch": 288,
        "meta_bstar": -0.010366,
        "meta_mean_motion_dot": -0.01567957,
        "meta_mean_motion_ddot": 0,
        "tle_line1": "1 66588U 25270A   25337.33335647 -.01567957  00000+0 -10366-1 0  9991",
        "tle_line2": "2 66588  42.9989 248.7468 0001805 267.6620  63.0938 15.77707206  2887"
      },
      "geometry": {
        "type": "Point",
        "coordinates": [
          90.86584539292937,
          -22.108533758631253
        ]
      }
    },
    {
      "type": "Feature",
      "properties": {
        "norad_id": 66589,
        "name": "STARLINK-35447",
        "group": "last-30-days",
        "lat": -24.423562201420072,
        "lon": 94.17611735171873,
        "alt_km": 344.318209448742,
        "timestamp": "2025-12-03T22:42:31.476790+00:00",
        "meta_object_name": "STARLINK-35447",
        "meta_object_id": "2025-270B",
        "meta_epoch": "2025-12-03T08:00:01.999008",
        "meta_mean_motion": 15.77723151,
        "meta_eccentricity": 0.0001715,
        "meta_inclination": 42.9988,
        "meta_ra_of_asc_node": 248.7369,
        "meta_arg_of_pericenter": 264.208,
        "meta_mean_anomaly": 70.3484,
        "meta_ephemeris_type": 0,
        "meta_classification_type": "U",
        "meta_norad_cat_id": 66589,
        "meta_element_set_no": 999,
        "meta_rev_at_epoch": 299,
        "meta_bstar": -0.010389,
        "meta_mean_motion_dot": -0.01571882,
        "meta_mean_motion_ddot": 0,
        "tle_line1": "1 66589U 25270B   25337.33335647 -.01571882  00000+0 -10389-1 0  9999",
        "tle_line2": "2 66589  42.9988 248.7369 0001715 264.2080  70.3484 15.77723151  2996"
      },
      "geometry": {
        "type": "Point",
        "coordinates": [
          94.17611735171873,
          -24.423562201420072
        ]
      }
    },
    {
      "type": "Feature",
      "properties": {
        "norad_id": 66590,
        "name": "STARLINK-35429",
        "group": "last-30-days",
        "lat": -23.265407282882325,
        "lon": 92.49339644528472,
        "alt_km": 344.2451452257128,
        "timestamp": "2025-12-03T22:42:31.476799+00:00",
        "meta_object_name": "STARLINK-35429",
        "meta_object_id": "2025-270C",
        "meta_epoch": "2025-12-03T08:00:01.999008",
        "meta_mean_motion": 15.77742488,
        "meta_eccentricity": 0.0001817,
        "meta_inclination": 42.9987,
        "meta_ra_of_asc_node": 248.7421,
        "meta_arg_of_pericenter": 266.4101,
        "meta_mean_anomaly": 66.1817,
        "meta_ephemeris_type": 0,
        "meta_classification_type": "U",
        "meta_norad_cat_id": 66590,
        "meta_element_set_no": 999,
        "meta_rev_at_epoch": 299,
        "meta_bstar": -0.010414,
        "meta_mean_motion_dot": -0.01576532,
        "meta_mean_motion_ddot": 0,
        "tle_line1": "1 66590U 25270C   25337.33335647 -.01576532  00000+0 -10414-1 0  9997",
        "tle_line2": "2 66590  42.9987 248.7421 0001817 266.4101  66.1817 15.77742488  2994"
      },
      "geometry": {
        "type": "Point",
        "coordinates": [
          92.49339644528472,
          -23.265407282882325
        ]
      }
    },
    {
      "type": "Feature",
      "properties": {
        "norad_id": 66591,
        "name": "STARLINK-36058",
        "group": "last-30-days",
        "lat": -26.945088333659466,
        "lon": 98.05616323225678,
        "alt_km": 340.7604680119384,
        "timestamp": "2025-12-03T22:42:31.476809+00:00",
        "meta_object_name": "STARLINK-36058",
        "meta_object_id": "2025-270D",
        "meta_epoch": "2025-12-03T11:08:19.732992",
        "meta_mean_motion": 15.77801823,
        "meta_eccentricity": 0.0002857,
        "meta_inclination": 43.0002,
        "meta_ra_of_asc_node": 247.9345,
        "meta_arg_of_pericenter": 351.0216,
        "meta_mean_anomaly": 9.0603,
        "meta_ephemeris_type": 0,
        "meta_classification_type": "U",
        "meta_norad_cat_id": 66591,
        "meta_element_set_no": 999,
        "meta_rev_at_epoch": 289,
        "meta_bstar": -0.00058706,
        "meta_mean_motion_dot": -0.00101235,
        "meta_mean_motion_ddot": 0,
        "tle_line1": "1 66591U 25270D   25337.46411728 -.00101235  00000+0 -58706-3 0  9998",
        "tle_line2": "2 66591  43.0002 247.9345 0002857 351.0216   9.0603 15.77801823  2891"
      },
      "geometry": {
        "type": "Point",
        "coordinates": [
          98.05616323225678,
          -26.945088333659466
        ]
      }
    },
    {
      "type": "Feature",
      "properties": {
        "norad_id": 66592,
        "name": "STARLINK-36066",
        "group": "last-30-days",
        "lat": -26.690950056400233,
        "lon": 97.65263717138163,
        "alt_km": 344.6787664607182,
        "timestamp": "2025-12-03T22:42:31.476819+00:00",
        "meta_object_name": "STARLINK-36066",
        "meta_object_id": "2025-270E",
        "meta_epoch": "2025-12-03T08:00:01.999008",
        "meta_mean_motion": 15.77664507,
        "meta_eccentricity": 0.0001877,
        "meta_inclination": 42.9989,
        "meta_ra_of_asc_node": 248.7271,
        "meta_arg_of_pericenter": 268.2079,
        "meta_mean_anomaly": 70.3939,
        "meta_ephemeris_type": 0,
        "meta_classification_type": "U",
        "meta_norad_cat_id": 66592,
        "meta_element_set_no": 999,
        "meta_rev_at_epoch": 279,
        "meta_bstar": -0.010569,
        "meta_mean_motion_dot": -0.015921,
        "meta_mean_motion_ddot": 0,
        "tle_line1": "1 66592U 25270E   25337.33335647 -.01592100  00000+0 -10569-1 0  9999",
        "tle_line2": "2 66592  42.9989 248.7271 0001877 268.2079  70.3939 15.77664507  2796"
      },
      "geometry": {
        "type": "Point",
        "coordinates": [
          97.65263717138163,
          -26.690950056400233
        ]
      }
    },
    {
      "type": "Feature",
      "properties": {
        "norad_id": 66593,
        "name": "STARLINK-36031",
        "group": "last-30-days",
        "lat": -29.121913134777984,
        "lon": 101.70228361652597,
        "alt_km": 340.8941663368514,
        "timestamp": "2025-12-03T22:42:31.476828+00:00",
        "meta_object_name": "STARLINK-36031",
        "meta_object_id": "2025-270F",
        "meta_epoch": "2025-12-03T11:07:19.086240",
        "meta_mean_motion": 15.77750161,
        "meta_eccentricity": 0.0002904,
        "meta_inclination": 43.0003,
        "meta_ra_of_asc_node": 247.9281,
        "meta_arg_of_pericenter": 347.995,
        "meta_mean_anomaly": 12.085,
        "meta_ephemeris_type": 0,
        "meta_classification_type": "U",
        "meta_norad_cat_id": 66593,
        "meta_element_set_no": 999,
        "meta_rev_at_epoch": 289,
        "meta_bstar": -0.00058867,
        "meta_mean_motion_dot": -0.00101277,
        "meta_mean_motion_ddot": 0,
        "tle_line1": "1 66593U 25270F   25337.46341535 -.00101277  00000+0 -58867-3 0  9992",
        "tle_line2": "2 66593  43.0003 247.9281 0002904 347.9950  12.0850 15.77750161  2891"
      },
      "geometry": {
        "type": "Point",
        "coordinates": [
          101.70228361652597,
          -29.121913134777984
        ]
      }
    },
    {
      "type": "Feature",
      "properties": {
        "norad_id": 66594,
        "name": "STARLINK-36032",
        "group": "last-30-days",
        "lat": -28.875093211666567,
        "lon": 101.27696921067823,
        "alt_km": 345.15641456967023,
        "timestamp": "2025-12-03T22:42:31.476837+00:00",
        "meta_object_name": "STARLINK-36032",
        "meta_object_id": "2025-270G",
        "meta_epoch": "2025-12-03T08:00:01.999008",
        "meta_mean_motion": 15.77566251,
        "meta_eccentricity": 0.0001721,
        "meta_inclination": 42.9988,
        "meta_ra_of_asc_node": 248.7168,
        "meta_arg_of_pericenter": 266.4845,
        "meta_mean_anomaly": 76.2615,
        "meta_ephemeris_type": 0,
        "meta_classification_type": "U",
        "meta_norad_cat_id": 66594,
        "meta_element_set_no": 999,
        "meta_rev_at_epoch": 262,
        "meta_bstar": -0.010797,
        "meta_mean_motion_dot": -0.01647738,
        "meta_mean_motion_ddot": 0,
        "tle_line1": "1 66594U 25270G   25337.33335647 -.01647738  00000+0 -10797-1 0  9992",
        "tle_line2": "2 66594  42.9988 248.7168 0001721 266.4845  76.2615 15.77566251  2626"
      },
      "geometry": {
        "type": "Point",
        "coordinates": [
          101.27696921067823,
          -28.875093211666567
        ]
      }
    }
  ]
}